<?xml version="1.0" encoding="UTF-8"?>
<ndm xmlns:xsi="http://www.w3.org/2001/XMLSchema-instance" xsi:noNamespaceSchemaLocation="https://sanaregistry.org/r/ndmxml_unqualified/ndmxml-2.0.0-master-2.0.xsd">
<omm id="CCSDS_OMM_VERS" version="2.0">
<header><CREATION_DATE/><ORIGINATOR/></header><body><segment><metadata><OBJECT_NAME>KUIPER-00112</OBJECT_NAME><OBJECT_ID>2025-171U</OBJECT_ID><CENTER_NAME>EARTH</CENTER_NAME><REF_FRAME>TEME</REF_FRAME><TIME_SYSTEM>UTC</TIME_SYSTEM><MEAN_ELEMENT_THEORY>SGP4</MEAN_ELEMENT_THEORY></metadata><data><meanElements><EPOCH>2026-01-18T06:27:47.524320</EPOCH><MEAN_MOTION>14.79740837</MEAN_MOTION><ECCENTRICITY>.00058615</ECCENTRICITY><INCLINATION>51.9021</INCLINATION><RA_OF_ASC_NODE>18.5568</RA_OF_ASC_NODE><ARG_OF_PERICENTER>4.3760</ARG_OF_PERICENTER><MEAN_ANOMALY>355.7252</MEAN_ANOMALY></meanElements><tleParameters><EPHEMERIS_TYPE>0</EPHEMERIS_TYPE><CLASSIFICATION_TYPE>U</CLASSIFICATION_TYPE><NORAD_CAT_ID>65150</NORAD_CAT_ID><ELEMENT_SET_NO>999</ELEMENT_SET_NO><REV_AT_EPOCH>2545</REV_AT_EPOCH><BSTAR>.27708923E-3</BSTAR><MEAN_MOTION_DOT>.1882E-4</MEAN_MOTION_DOT><MEAN_MOTION_DDOT>0</MEAN_MOTION_DDOT></tleParameters></data></segment></body></omm>
<omm id="CCSDS_OMM_VERS" version="2.0">
<header><CREATION_DATE/><ORIGINATOR/></header><body><segment><metadata><OBJECT_NAME>KUIPER-00114</OBJECT_NAME><OBJECT_ID>2025-171V</OBJECT_ID><CENTER_NAME>EARTH</CENTER_NAME><REF_FRAME>TEME</REF_FRAME><TIME_SYSTEM>UTC</TIME_SYSTEM><MEAN_ELEMENT_THEORY>SGP4</MEAN_ELEMENT_THEORY></metadata><data><meanElements><EPOCH>2026-01-21T09:17:54.038400</EPOCH><MEAN_MOTION>14.79920463</MEAN_MOTION><ECCENTRICITY>.0002875</ECCENTRICITY><INCLINATION>51.8999</INCLINATION><RA_OF_ASC_NODE>24.7724</RA_OF_ASC_NODE><ARG_OF_PERICENTER>356.0108</ARG_OF_PERICENTER><MEAN_ANOMALY>4.0831</MEAN_ANOMALY></meanElements><tleParameters><EPHEMERIS_TYPE>0</EPHEMERIS_TYPE><CLASSIFICATION_TYPE>U</CLASSIFICATION_TYPE><NORAD_CAT_ID>65151</NORAD_CAT_ID><ELEMENT_SET_NO>999</ELEMENT_SET_NO><REV_AT_EPOCH>2563</REV_AT_EPOCH><BSTAR>.12251E-2</BSTAR><MEAN_MOTION_DOT>.9128E-4</MEAN_MOTION_DOT><MEAN_MOTION_DDOT>0</MEAN_MOTION_DDOT></tleParameters></data></segment></body></omm>
<omm id="CCSDS_OMM_VERS" version="2.0">
<header><CREATION_DATE/><ORIGINATOR/></header><body><segment><metadata><OBJECT_NAME>KUIPER-00115</OBJECT_NAME><OBJECT_ID>2025-171W</OBJECT_ID><CENTER_NAME>EARTH</CENTER_NAME><REF_FRAME>TEME</REF_FRAME><TIME_SYSTEM>UTC</TIME_SYSTEM><MEAN_ELEMENT_THEORY>SGP4</MEAN_ELEMENT_THEORY></metadata><data><meanElements><EPOCH>2026-01-21T12:00:01.999296</EPOCH><MEAN_MOTION>14.79939788</MEAN_MOTION><ECCENTRICITY>.0001588</ECCENTRICITY><INCLINATION>51.9005</INCLINATION><RA_OF_ASC_NODE>16.7626</RA_OF_ASC_NODE><ARG_OF_PERICENTER>52.3130</ARG_OF_PERICENTER><MEAN_ANOMALY>143.1725</MEAN_ANOMALY></meanElements><tleParameters><EPHEMERIS_TYPE>0</EPHEMERIS_TYPE><CLASSIFICATION_TYPE>U</CLASSIFICATION_TYPE><NORAD_CAT_ID>65152</NORAD_CAT_ID><ELEMENT_SET_NO>999</ELEMENT_SET_NO><REV_AT_EPOCH>548</REV_AT_EPOCH><BSTAR>.23117E-2</BSTAR><MEAN_MOTION_DOT>.1745E-3</MEAN_MOTION_DOT><MEAN_MOTION_DDOT>0</MEAN_MOTION_DDOT></tleParameters></data></segment></body></omm>
<omm id="CCSDS_OMM_VERS" version="2.0">
<header><CREATION_DATE/><ORIGINATOR/></header><body><segment><metadata><OBJECT_NAME>KUIPER-00116</OBJECT_NAME><OBJECT_ID>2025-171X</OBJECT_ID><CENTER_NAME>EARTH</CENTER_NAME><REF_FRAME>TEME</REF_FRAME><TIME_SYSTEM>UTC</TIME_SYSTEM><MEAN_ELEMENT_THEORY>SGP4</MEAN_ELEMENT_THEORY></metadata><data><meanElements><EPOCH>2026-01-21T10:10:13.403136</EPOCH><MEAN_MOTION>14.80051170</MEAN_MOTION><ECCENTRICITY>.0008725</ECCENTRICITY><INCLINATION>51.9008</INCLINATION><RA_OF_ASC_NODE>22.1354</RA_OF_ASC_NODE><ARG_OF_PERICENTER>301.0326</ARG_OF_PERICENTER><MEAN_ANOMALY>58.9779</MEAN_ANOMALY></meanElements><tleParameters><EPHEMERIS_TYPE>0</EPHEMERIS_TYPE><CLASSIFICATION_TYPE>U</CLASSIFICATION_TYPE><NORAD_CAT_ID>65153</NORAD_CAT_ID><ELEMENT_SET_NO>999</ELEMENT_SET_NO><REV_AT_EPOCH>2567</REV_AT_EPOCH><BSTAR>.14087E-2</BSTAR><MEAN_MOTION_DOT>.1057E-3</MEAN_MOTION_DOT><MEAN_MOTION_DDOT>0</MEAN_MOTION_DDOT></tleParameters></data></segment></body></omm>
<omm id="CCSDS_OMM_VERS" version="2.0">
<header><CREATION_DATE/><ORIGINATOR/></header><body><segment><metadata><OBJECT_NAME>KUIPER-00118</OBJECT_NAME><OBJECT_ID>2025-171Y</OBJECT_ID><CENTER_NAME>EARTH</CENTER_NAME><REF_FRAME>TEME</REF_FRAME><TIME_SYSTEM>UTC</TIME_SYSTEM><MEAN_ELEMENT_THEORY>SGP4</MEAN_ELEMENT_THEORY></metadata><data><meanElements><EPOCH>2026-01-21T10:06:48.774240</EPOCH><MEAN_MOTION>14.80003213</MEAN_MOTION><ECCENTRICITY>.0001383</ECCENTRICITY><INCLINATION>51.9007</INCLINATION><RA_OF_ASC_NODE>24.6052</RA_OF_ASC_NODE><ARG_OF_PERICENTER>13.8187</ARG_OF_PERICENTER><MEAN_ANOMALY>346.2813</MEAN_ANOMALY></meanElements><tleParameters><EPHEMERIS_TYPE>0</EPHEMERIS_TYPE><CLASSIFICATION_TYPE>U</CLASSIFICATION_TYPE><NORAD_CAT_ID>65154</NORAD_CAT_ID><ELEMENT_SET_NO>999</ELEMENT_SET_NO><REV_AT_EPOCH>2564</REV_AT_EPOCH><BSTAR>.13449E-2</BSTAR><MEAN_MOTION_DOT>.10064E-3</MEAN_MOTION_DOT><MEAN_MOTION_DDOT>0</MEAN_MOTION_DDOT></tleParameters></data></segment></body></omm>
<omm id="CCSDS_OMM_VERS" version="2.0">
<header><CREATION_DATE/><ORIGINATOR/></header><body><segment><metadata><OBJECT_NAME>KUIPER-00119</OBJECT_NAME><OBJECT_ID>2025-171Z</OBJECT_ID><CENTER_NAME>EARTH</CENTER_NAME><REF_FRAME>TEME</REF_FRAME><TIME_SYSTEM>UTC</TIME_SYSTEM><MEAN_ELEMENT_THEORY>SGP4</MEAN_ELEMENT_THEORY></metadata><data><meanElements><EPOCH>2026-01-21T08:48:18.100224</EPOCH><MEAN_MOTION>14.80019280</MEAN_MOTION><ECCENTRICITY>.000767</ECCENTRICITY><INCLINATION>51.9012</INCLINATION><RA_OF_ASC_NODE>12.4254</RA_OF_ASC_NODE><ARG_OF_PERICENTER>334.0742</ARG_OF_PERICENTER><MEAN_ANOMALY>25.9835</MEAN_ANOMALY></meanElements><tleParameters><EPHEMERIS_TYPE>0</EPHEMERIS_TYPE><CLASSIFICATION_TYPE>U</CLASSIFICATION_TYPE><NORAD_CAT_ID>65155</NORAD_CAT_ID><ELEMENT_SET_NO>999</ELEMENT_SET_NO><REV_AT_EPOCH>2580</REV_AT_EPOCH><BSTAR>.10418E-2</BSTAR><MEAN_MOTION_DOT>.7748E-4</MEAN_MOTION_DOT><MEAN_MOTION_DDOT>0</MEAN_MOTION_DDOT></tleParameters></data></segment></body></omm>
<omm id="CCSDS_OMM_VERS" version="2.0">
<header><CREATION_DATE/><ORIGINATOR/></header><body><segment><metadata><OBJECT_NAME>KUIPER-00120</OBJECT_NAME><OBJECT_ID>2025-217A</OBJECT_ID><CENTER_NAME>EARTH</CENTER_NAME><REF_FRAME>TEME</REF_FRAME><TIME_SYSTEM>UTC</TIME_SYSTEM><MEAN_ELEMENT_THEORY>SGP4</MEAN_ELEMENT_THEORY></metadata><data><meanElements><EPOCH>2026-01-20T20:47:35.802240</EPOCH><MEAN_MOTION>14.76418105</MEAN_MOTION><ECCENTRICITY>.0003693</ECCENTRICITY><INCLINATION>51.8985</INCLINATION><RA_OF_ASC_NODE>263.9093</RA_OF_ASC_NODE><ARG_OF_PERICENTER>124.0965</ARG_OF_PERICENTER><MEAN_ANOMALY>236.0347</MEAN_ANOMALY></meanElements><tleParameters><EPHEMERIS_TYPE>0</EPHEMERIS_TYPE><CLASSIFICATION_TYPE>U</CLASSIFICATION_TYPE><NORAD_CAT_ID>65762</NORAD_CAT_ID><ELEMENT_SET_NO>999</ELEMENT_SET_NO><REV_AT_EPOCH>1766</REV_AT_EPOCH><BSTAR>.13674712E-2</BSTAR><MEAN_MOTION_DOT>.9393E-4</MEAN_MOTION_DOT><MEAN_MOTION_DDOT>0</MEAN_MOTION_DDOT></tleParameters></data></segment></body></omm>
<omm id="CCSDS_OMM_VERS" version="2.0">
<header><CREATION_DATE/><ORIGINATOR/></header><body><segment><metadata><OBJECT_NAME>KUIPER-00132</OBJECT_NAME><OBJECT_ID>2025-217B</OBJECT_ID><CENTER_NAME>EARTH</CENTER_NAME><REF_FRAME>TEME</REF_FRAME><TIME_SYSTEM>UTC</TIME_SYSTEM><MEAN_ELEMENT_THEORY>SGP4</MEAN_ELEMENT_THEORY></metadata><data><meanElements><EPOCH>2026-01-20T21:21:19.991808</EPOCH><MEAN_MOTION>15.38216885</MEAN_MOTION><ECCENTRICITY>.00082354</ECCENTRICITY><INCLINATION>51.8591</INCLINATION><RA_OF_ASC_NODE>235.2703</RA_OF_ASC_NODE><ARG_OF_PERICENTER>150.8034</ARG_OF_PERICENTER><MEAN_ANOMALY>209.3415</MEAN_ANOMALY></meanElements><tleParameters><EPHEMERIS_TYPE>0</EPHEMERIS_TYPE><CLASSIFICATION_TYPE>U</CLASSIFICATION_TYPE><NORAD_CAT_ID>65763</NORAD_CAT_ID><ELEMENT_SET_NO>999</ELEMENT_SET_NO><REV_AT_EPOCH>1806</REV_AT_EPOCH><BSTAR>.17562783E-2</BSTAR><MEAN_MOTION_DOT>.6743E-3</MEAN_MOTION_DOT><MEAN_MOTION_DDOT>0</MEAN_MOTION_DDOT></tleParameters></data></segment></body></omm>

</ndm>
