KUIPER-00112            
1 65150U 25171U   26018.26930005  .00001882  00000+0  27709-3 0  9991
2 65150  51.9021  18.5568 0005861   4.3760 355.7252 14.79740837 25455
KUIPER-00114            
1 65151U 25171V   26021.38743100  .00009128  00000+0  12251-2 0  9993
2 65151  51.8999  24.7724 0002875 356.0108   4.0831 14.79920463 25639
KUIPER-00115            
1 65152U 25171W   26021.50002314  .00017450  00000+0  23117-2 0  9993
2 65152  51.9005  16.7626 0001588  52.3130 143.1725 14.79939788  5480
KUIPER-00116            
1 65153U 25171X   26021.42376624  .00010570  00000+0  14087-2 0  9995
2 65153  51.9008  22.1354 0008725 301.0326  58.9779 14.80051170 25671
KUIPER-00118            
1 65154U 25171Y   26021.42139785  .00010064  00000+0  13449-2 0  9990
2 65154  51.9007  24.6052 0001383  13.8187 346.2813 14.80003213 25643
KUIPER-00119            
1 65155U 25171Z   26021.36687616  .00007748  00000+0  10418-2 0  9993
2 65155  51.9012  12.4254 0007670 334.0742  25.9835 14.80019280 25803
KUIPER-00120            
1 65762U 25217A   26020.86638660  .00009393  00000+0  13675-2 0  9993
2 65762  51.8985 263.9093 0003693 124.0965 236.0347 14.76418105 17666
KUIPER-00132            
1 65763U 25217B   26020.88981472  .00067430  00000+0  17563-2 0  9994
2 65763  51.8591 235.2703 0008235 150.8034 209.3415 15.38216885 18065
